QIANFAN-60              
1 62790U 25016F   25264.65270850  .00000073  00000+0  92061-4 0  9991
2 62790  88.9742 111.5779 0014123 216.5144 143.5047 13.52523510 36144
QIANFAN-61              
1 62791U 25016G   25264.60105997  .00000073  00000+0  94844-4 0  9997
2 62791  88.9809 111.6878 0013429 215.3673 144.6589 13.50971564 36150
QIANFAN-62              
1 62792U 25016H   25264.60519351  .00000072  00000+0  93534-4 0  9995
2 62792  88.9756 111.6002 0014798 216.2444 143.7705 13.50965535 36147
QIANFAN-63              
1 62793U 25016J   25264.62753824  .00000075  00000+0  99774-4 0  9998
2 62793  88.9763 111.5433 0014457 222.5693 137.4338 13.49732153 36183
QIANFAN-64              
1 62794U 25016K   25264.59887223  .00000071  00000+0  89211-4 0  9997
2 62794  88.9749 111.5325 0012695 212.2703 147.7673 13.52420842 36176
QIANFAN-65              
1 62795U 25016L   25264.59283296  .00000057  00000+0  70038-4 0  9999
2 62795  88.9745 111.5616 0012624 215.5644 144.4667 13.50969069 36150
QIANFAN-66              
1 62796U 25016M   25264.62167154  .00000060  00000+0  74794-4 0  9995
2 62796  88.9765 111.5126 0013836 211.0846 148.9488 13.50964297 36204
QIANFAN-67              
1 62797U 25016N   25264.62567125  .00000067  00000+0  86000-4 0  9998
2 62797  88.9755 111.5458 0013666 218.5717 141.4459 13.50965772 36173
QIANFAN-68              
1 62798U 25016P   25264.61805243  .00000067  00000+0  82925-4 0  9996
2 62798  88.9759 111.5889 0013916 217.0168 143.0025 13.52428687 36154
QIANFAN-69              
1 62799U 25016Q   25264.63395862  .00000065  00000+0  82083-4 0  9993
2 62799  88.9737 111.4742 0014483 217.9966 142.0165 13.50965842 36198
QIANFAN-70              
1 62800U 25016R   25264.65036113  .00000100  00000+0  13680-3 0  9995
2 62800  88.9759 111.5937 0014286 207.4250 152.6149 13.50970403 36157
QIANFAN-71              
1 62801U 25016S   25264.64632703  .00000075  00000+0  97171-4 0  9991
2 62801  88.9752 111.5786 0014322 221.8251 138.1807 13.50969522 36155
QIANFAN-72              
1 62802U 25016T   25264.65183843  .00000102  00000+0  14242-3 0  9997
2 62802  88.9743 111.5968 0017731 230.1030 129.8562 13.49485686 36149
QIANFAN-73              
1 63159U 25046A   25264.61570125  .00000181  00000+0  26152-3 0  9995
2 63159  88.9835 328.5119 0014645  10.1526 349.9918 13.50974243 36326
QIANFAN-74              
1 63160U 25046B   25264.59911384  .00000091  00000+0  12222-3 0  9993
2 63160  88.9837 328.4022 0002243 107.0090 253.1307 13.50967449 36389
QIANFAN-75              
1 63161U 25046C   25264.58689612  .00000215  00000+0  31423-3 0  9991
2 63161  88.9836 328.6355 0015826  12.7426 347.4122 13.50977460 36258
QIANFAN-76              
1 63162U 25046D   25264.58275483  .00000168  00000+0  24177-3 0  9994
2 63162  88.9836 328.6169 0013442  14.9131 345.2414 13.50972153 36266
QIANFAN-77              
1 63163U 25046E   25264.61900627  .00000412  00000+0  29099-3 0  9994
2 63163  88.9831 327.2947 0013507 345.6506  14.4285 13.96048226 36999
QIANFAN-78              
1 63164U 25046F   25264.62391212  .00000187  00000+0  27024-3 0  9995
2 63164  88.9835 328.4775 0014898  16.2423 343.9203 13.50976484 36344
QIANFAN-79              
1 63165U 25046G   25264.65255775  .00000194  00000+0  28128-3 0  9996
2 63165  88.9839 328.5788 0014492  14.6518 345.5050 13.50965659 36295
QIANFAN-80              
1 63166U 25046H   25264.59507530  .00000198  00000+0  28752-3 0  9996
2 63166  88.9836 328.2940 0013697  19.9138 340.2545 13.50966132 36447
QIANFAN-81              
1 63167U 25046J   25264.64854425  .00000209  00000+0  30554-3 0  9997
2 63167  88.9836 328.3569 0014197   7.2445 352.8909 13.50978191 36400
QIANFAN-82              
1 63168U 25046K   25264.60738902  .00000036  00000+0  37170-4 0  9995
2 63168  88.9836 328.4047 0012703  16.8176 343.3394 13.50965655 36382
QIANFAN-83              
1 63169U 25046L   25264.63573907  .00000225  00000+0  27611-3 0  9999
2 63169  88.9836 328.3392 0013558   5.4184 354.7118 13.61952553 36427
QIANFAN-84              
1 63170U 25046M   25264.63600007  .00000051  00000+0  60231-4 0  9996
2 63170  88.9836 328.5347 0015475  11.0219 349.1269 13.50979526 36313
QIANFAN-85              
1 63171U 25046N   25264.63214770  .00000202  00000+0  29422-3 0  9999
2 63171  88.9835 328.4072 0012998  15.3162 344.8380 13.50976164 36386
QIANFAN-86              
1 63172U 25046P   25264.64036380  .00000194  00000+0  28128-3 0  9992
2 63172  88.9837 328.2665 0011083  21.5257 338.6358 13.50976593 36464
QIANFAN-87              
1 63173U 25046Q   25264.61157171  .00000193  00000+0  28069-3 0  9995
2 63173  88.9833 328.3842 0011578  15.7589 344.3920 13.50972474 36396
QIANFAN-88              
1 63174U 25046R   25264.62798515  .00000016  00000+0  62204-5 0  9995
2 63174  88.9836 328.3351 0012280  23.3058 336.8648 13.50965313 36423
QIANFAN-89              
1 63175U 25046S   25264.59078772  .00000205  00000+0  29847-3 0  9992
2 63175  88.9837 328.5280 0016163  11.2979 348.8532 13.50967307 36318
QIANFAN-90              
1 63176U 25046T   25264.61960938  .00000189  00000+0  27405-3 0  9999
2 63176  88.9837 328.4972 0013061  11.2459 348.8982 13.50979525 36339
